ION SCV-004             
1 50993U 22002K   26068.68892644  .00006538  00000+0  23198-3 0  9998
2 50993  97.2961 128.2294 0007216   1.6783 358.4480 15.29369331230088
STARLINK-30887          
1 58394U 23178W   26068.22234539  .00000558  00000+0  30951-4 0  9991
2 58394  53.1618   3.5105 0000924  88.3390 271.7716 15.30188910129790
